IRIDIUM 63              
1 25286U 98021B   25220.62959942  .00000311  00000+0  99005-4 0  9991
2 25286  86.3934  60.1183 0002310  90.5562 269.5899 14.36576036431377
IRIDIUM 69              
1 25319U 98026A   25220.62012848  .00000370  00000+0  10904-3 0  9993
2 25319  86.3926  73.2557 0002151 154.2167 205.9140 14.41008328430616
IRIDIUM 71              
1 25320U 98026B   25220.62016450  .00000314  00000+0  91283-4 0  9996
2 25320  86.3925  67.9364 0000175  13.7016 346.4189 14.41191811431142
IRIDIUM 73              
1 25344U 98032C   25220.51553618  .00000476  00000+0  11323-3 0  9994
2 25344  86.4412  24.5803 0002378 107.7332 252.4134 14.51761987438151
IRIDIUM 82              
1 25467U 98051A   25220.63176278  .00026242  00000+0  70016-3 0  9990
2 25467  86.3623  83.9048 0084014  96.9880 264.0935 15.34384867431997
